     2              NAVIGATION DATA                         RINEX VERSION / TYPE
CCRINEXN V1.6.0 UX  CDDIS               30-MAY-04 02:39     PGM / RUN BY / DATE 
IGS BROADCAST EPHEMERIS FILE                                COMMENT             
    0.1024D-07  0.2235D-07 -0.5960D-07 -0.1192D-06          ION ALPHA           
    0.9626D+05  0.1311D+06 -0.6554D+05 -0.5898D+06          ION BETA            
   -0.838190317154D-08-0.310862446895D-13   147456     1273 DELTA-UTC: A0,A1,T,W
    13                                                      LEAP SECONDS        
                                                            END OF HEADER       
 9 04  5 29 16  0  0.0-0.467370264232D-04-0.181898940355D-11 0.000000000000D+00
    0.740000000000D+02-0.294687500000D+02 0.481020036415D-08-0.235366121640D+01
   -0.154972076416D-05 0.156101469183D-01 0.437349081039D-05 0.515370309067D+04
    0.576000000000D+06 0.147148966789D-06-0.228038126232D+01-0.111758708954D-06
    0.951704416892D+00 0.288250000000D+03 0.104355903450D+01-0.811498087867D-08
    0.152149194768D-09 0.100000000000D+01 0.127200000000D+04 0.000000000000D+00
    0.280000000000D+01 0.000000000000D+00-0.558793544769D-08 0.330000000000D+03
    0.575958000000D+06 0.400000000000D+01 0.000000000000D+00 0.000000000000D+00
10 04  5 29 16  0  0.0 0.447710044682D-04 0.568434188608D-12 0.000000000000D+00
    0.340000000000D+02-0.558125000000D+02 0.413231498465D-08 0.114785575136D+01
   -0.252202153206D-05 0.610075262375D-02 0.882521271706D-05 0.515371893120D+04
    0.576000000000D+06-0.111758708954D-07 0.195612980761D+01 0.614672899246D-07
    0.980008604789D+00 0.219250000000D+03 0.312478061177D+00-0.792175854447D-08
   -0.411802867528D-09 0.100000000000D+01 0.127200000000D+04 0.000000000000D+00
    0.280000000000D+01 0.000000000000D+00-0.232830643654D-08 0.340000000000D+02
    0.568818000000D+06 0.400000000000D+01 0.000000000000D+00 0.000000000000D+00
11 04  5 29 16  0  0.0 0.120934564620D-03 0.295585778076D-11 0.000000000000D+00
    0.219000000000D+03 0.240000000000D+02 0.629347643427D-08-0.143967960363D+01
    0.116787850857D-05 0.289772392716D-02 0.303797423840D-05 0.515368146896D+04
    0.576000000000D+06 0.204890966415D-07 0.791064260167D+00-0.204890966415D-07
    0.906997581873D+00 0.291937500000D+03 0.921490591325D-01-0.914609525729D-08
    0.128576784311D-10 0.100000000000D+01 0.127200000000D+04 0.000000000000D+00
    0.280000000000D+01 0.000000000000D+00-0.121071934700D-07 0.731000000000D+03
    0.568818000000D+06 0.400000000000D+01 0.000000000000D+00 0.000000000000D+00
13 04  5 29 16  0  0.0-0.280742533505D-04 0.454747350887D-12 0.000000000000D+00
    0.116000000000D+03 0.273437500000D+02 0.388123309751D-08 0.127247387788D+01
    0.139884650707D-05 0.231641379651D-02 0.951252877712D-05 0.515366474724D+04
    0.576000000000D+06-0.167638063431D-07 0.299889509348D+01-0.372529029846D-08
    0.983810970259D+00 0.208406250000D+03 0.779627750328D+00-0.780996817367D-08
    0.290726395636D-09 0.100000000000D+01 0.127200000000D+04 0.000000000000D+00
    0.280000000000D+01 0.000000000000D+00-0.111758708954D-07 0.372000000000D+03
    0.568818000000D+06 0.400000000000D+01 0.000000000000D+00 0.000000000000D+00
14 04  5 29 16  0  0.0-0.206911936402D-04-0.568434188608D-12 0.000000000000D+00
    0.169000000000D+03 0.249062500000D+02 0.408588451961D-08-0.346488381523D+00
    0.135786831379D-05 0.138517864980D-02 0.847131013870D-05 0.515361057854D+04
    0.576000000000D+06-0.353902578354D-07 0.298962506876D+01 0.726431608200D-07
    0.978245867501D+00 0.226687500000D+03-0.148236730888D+01-0.790997223277D-08
    0.263939564649D-09 0.100000000000D+01 0.127200000000D+04 0.000000000000D+00
    0.200000000000D+01 0.000000000000D+00-0.102445483208D-07 0.425000000000D+03
    0.568818000000D+06 0.400000000000D+01 0.000000000000D+00 0.000000000000D+00
15 04  5 29 16  0  0.0 0.272824428976D-03 0.511590769747D-11 0.000000000000D+00
    0.113000000000D+03 0.275000000000D+01 0.481984363532D-08-0.214388213001D+01
    0.350177288055D-06 0.886747799814D-02 0.427290797234D-05 0.515368106079D+04
    0.576000000000D+06-0.137835741043D-06 0.970846230362D+00 0.160187482834D-06
    0.966730307421D+00 0.304375000000D+03 0.223695476443D+01-0.827284463156D-08
   -0.142148778859D-09 0.100000000000D+01 0.127200000000D+04 0.000000000000D+00
    0.400000000000D+01 0.000000000000D+00-0.232830643654D-08 0.881000000000D+03
    0.568818000000D+06 0.400000000000D+01 0.000000000000D+00 0.000000000000D+00
16 04  5 29 16  0  0.0 0.113467685878D-04-0.568434188608D-12 0.000000000000D+00
    0.166000000000D+03-0.347500000000D+02 0.435160983345D-08 0.307618163346D+01
   -0.184774398804D-05 0.253539043479D-02 0.107530504465D-04 0.515354485321D+04
    0.576000000000D+06 0.540167093277D-07-0.119979550937D+01-0.111758708954D-07
    0.960814670473D+00 0.170562500000D+03-0.144559321151D+01-0.790175771135D-08
   -0.197865384745D-09 0.100000000000D+01 0.127200000000D+04 0.000000000000D+00
    0.200000000000D+01 0.000000000000D+00-0.977888703346D-08 0.422000000000D+03
    0.574518000000D+06 0.400000000000D+01 0.000000000000D+00 0.000000000000D+00
17 04  5 29 16  0  0.0-0.174785964191D-04-0.201225702767D-10 0.000000000000D+00
    0.171000000000D+03-0.853125000000D+01 0.477484174847D-08-0.137564656163D+01
   -0.426545739174D-06 0.167511559557D-01 0.345334410667D-05 0.515361722374D+04
    0.576000000000D+06 0.188127160072D-06 0.101254832966D+01-0.201165676117D-06
    0.968710681568D+00 0.315031250000D+03-0.278598491767D+01-0.828820237975D-08
    0.457161899771D-10 0.100000000000D+01 0.127200000000D+04 0.000000000000D+00
    0.200000000000D+01 0.000000000000D+00-0.139698386192D-08 0.171000000000D+03
    0.568818000000D+06 0.400000000000D+01 0.000000000000D+00 0.000000000000D+00
18 04  5 29 16  0  0.0-0.393968075514D-04-0.352429196937D-11 0.000000000000D+00
    0.790000000000D+02-0.452187500000D+02 0.430446501253D-08 0.280193484285D+01
   -0.240840017796D-05 0.479406630620D-02 0.888668000698D-05 0.515367135620D+04
    0.576000000000D+06-0.875443220139D-07 0.198873311821D+01-0.111758708954D-07
    0.963691576411D+00 0.211843750000D+03-0.295586056254D+01-0.794604527039D-08
   -0.294297972978D-09 0.100000000000D+01 0.127200000000D+04 0.000000000000D+00
    0.200000000000D+01 0.000000000000D+00-0.102445483208D-07 0.790000000000D+02
    0.574638000000D+06 0.400000000000D+01 0.000000000000D+00 0.000000000000D+00
19 04  5 29 16  0  0.0-0.439560972154D-04 0.727595761418D-11 0.000000000000D+00
    0.133000000000D+03 0.817187500000D+02 0.458804825348D-08 0.194215757944D+01
    0.424683094025D-05 0.342476274818D-02 0.893510878086D-05 0.515382949448D+04
    0.576000000000D+06-0.186264514923D-08-0.980722213302D-01-0.894069671631D-07
    0.961022518948D+00 0.206562500000D+03-0.202694857610D+01-0.810533761985D-08
    0.366443835285D-09 0.100000000000D+01 0.127200000000D+04 0.000000000000D+00
    0.100000000000D+01 0.000000000000D+00-0.698491930962D-08 0.389000000000D+03
    0.571806000000D+06 0.400000000000D+01 0.000000000000D+00 0.000000000000D+00
20 04  5 29 16  0  0.0-0.158387701958D-03 0.386535248254D-11 0.000000000000D+00
    0.170000000000D+03-0.545312500000D+02 0.435661004172D-08 0.210440835191D+01
   -0.294670462608D-05 0.240441306960D-02 0.949762761593D-05 0.515365636635D+04
    0.576000000000D+06 0.000000000000D+00 0.193639575223D+01-0.558793544769D-07
    0.963677671375D+00 0.193343750000D+03 0.155901826508D+01-0.802783439153D-08
   -0.389659088008D-09 0.000000000000D+00 0.127200000000D+04 0.000000000000D+00
    0.200000000000D+01 0.000000000000D+00-0.698491930962D-08 0.426000000000D+03
    0.568800000000D+06 0.400000000000D+01 0.000000000000D+00 0.000000000000D+00
21 04  5 29 16  0  0.0 0.759684480727D-04 0.341060513165D-12 0.000000000000D+00
    0.120000000000D+02 0.459375000000D+01 0.511557022689D-08-0.214887921678D+01
    0.178813934326D-06 0.875929812901D-02 0.417977571487D-05 0.515368974686D+04
    0.576000000000D+06-0.167638063431D-06 0.943101068814D+00-0.210478901863D-06
    0.953331082318D+00 0.299656250000D+03 0.299517189967D+01-0.851392606777D-08
   -0.932181686252D-10 0.100000000000D+01 0.127200000000D+04 0.000000000000D+00
    0.200000000000D+01 0.000000000000D+00-0.121071934700D-07 0.120000000000D+02
    0.569508000000D+06 0.400000000000D+01 0.000000000000D+00 0.000000000000D+00
22 04  5 29 16  0  0.0 0.716559588909D-05 0.318323145621D-11 0.000000000000D+00
    0.149000000000D+03-0.401875000000D+02 0.452090276326D-08 0.751101884991D+00
   -0.212900340557D-05 0.482200714760D-02 0.913254916668D-05 0.515368009758D+04
    0.576000000000D+06-0.763684511185D-07 0.199857420178D+01-0.223517417908D-07
    0.961053973150D+00 0.207906250000D+03-0.142751171668D+01-0.815891088024D-08
   -0.278225886774D-09 0.100000000000D+01 0.127200000000D+04 0.000000000000D+00
    0.200000000000D+01 0.000000000000D+00-0.176951289177D-07 0.149000000000D+03
    0.568818000000D+06 0.400000000000D+01 0.000000000000D+00 0.000000000000D+00
24 04  5 29 16  0  0.0 0.305799767375D-04 0.295585778076D-11 0.000000000000D+00
    0.100000000000D+03 0.750000000000D+01 0.476269838551D-08-0.221380786016D+01
    0.556930899620D-06 0.933551427443D-02 0.356324017048D-05 0.515364140129D+04
    0.576000000000D+06 0.111758708954D-06 0.945106714871D+00 0.171363353729D-06
    0.970004948600D+00 0.315656250000D+03-0.139866193641D+01-0.819605568433D-08
   -0.817891211309D-10 0.100000000000D+01 0.127200000000D+04 0.000000000000D+00
    0.200000000000D+01 0.000000000000D+00-0.139698386192D-08 0.100000000000D+03
    0.568818000000D+06 0.400000000000D+01 0.000000000000D+00 0.000000000000D+00
